{"type": "FeatureCollection", "features": [{"type": "Feature", "id": "estacao_trem.3001", "geometry": {"type": "Point", "coordinates": [350955.5844, 7381736.9799]}, "geometry_name": "ge_ponto", "properties": {"cd_identificador": 3001, "cd_identificador_empresa_metro_trem": 2, "nm_estacao_metro_trem": "MAUÁ", "cd_situacao_estacao_metro_trem": 1, "sg_fonte_original": "CPTM", "cd_identificador_linha": 10, "tx_situacao_metro_trem": "OPERANDO", "nm_linha_metro_trem": "TURQUESA", "nm_empresa_metro_trem": "CPTM", "cd_tipo_transporte": 2}}, {"type": "Feature", "id": "estacao_trem.3002", "geometry": {"type": "Point", "coordinates": [377700.1304, 7398207.9289]}, "geometry_name": "ge_ponto", "properties": {"cd_identificador": 3002, "cd_identificador_empresa_metro_trem": 2, "nm_estacao_metro_trem": "MOGI DAS CRUZES", "cd_situacao_estacao_metro_trem": 1, "sg_fonte_original": "CPTM", "cd_identificador_linha": 11, "tx_situacao_metro_trem": "OPERANDO", "nm_linha_metro_trem": "CORAL", "nm_empresa_metro_trem": "CPTM", "cd_tipo_transporte": 2}}, {"type": "Feature", "id": "estacao_trem.3003", "geometry": {"type": "Point", "coordinates": [320793.7962, 7410581.0577]}, "geometry_name": "ge_ponto", "properties": {"cd_identificador": 3003, "cd_identificador_empresa_metro_trem": 2, "nm_estacao_metro_trem": "PERUS", "cd_situacao_estacao_metro_trem": 1, "sg_fonte_original": "CPTM", "cd_identificador_linha": 7, "tx_situacao_metro_trem": "OPERANDO", "nm_linha_metro_trem": "RUBI", "nm_empresa_metro_trem": "CPTM", "cd_tipo_transporte": 2}}, {"type": "Feature", "id": "estacao_trem.3004", "geometry": {"type": "Point", "coordinates": [324897.7133, 7399763.1616]}, "geometry_name": "ge_ponto", "properties": {"cd_identificador": 3004, "cd_identificador_empresa_metro_trem": 2, "nm_estacao_metro_trem": "PIQUERI", "cd_situacao_estacao_metro_trem": 1, "sg_fonte_original": "CPTM", "cd_identificador_linha": 7, "tx_situacao_metro_trem": "OPERANDO", "nm_linha_metro_trem": "RUBI", "nm_empresa_metro_trem": "CPTM", "cd_tipo_transporte": 2}}, {"type": "Feature", "id": "estacao_trem.3005", "geometry": {"type": "Point", "coordinates": [323738.5476, 7401341.1457]}, "geometry_name": "ge_ponto", "properties": {"cd_identificador": 3005, "cd_identificador_empresa_metro_trem": 2, "nm_estacao_metro_trem": "PIRITUBA", "cd_situacao_estacao_metro_trem": 1, "sg_fonte_original": "CPTM", "cd_identificador_linha": 7, "tx_situacao_metro_trem": "OPERANDO", "nm_linha_metro_trem": "RUBI", "nm_empresa_metro_trem": "CPTM", "cd_tipo_transporte": 2}}, {"type": "Feature", "id": "estacao_trem.3006", "geometry": {"type": "Point", "coordinates": [362832.8061, 7397672.9783]}, "geometry_name": "ge_ponto", "properties": {"cd_identificador": 3006, "cd_identificador_empresa_metro_trem": 2, "nm_estacao_metro_trem": "POÁ", "cd_situacao_estacao_metro_trem": 1, "sg_fonte_original": "CPTM", "cd_identificador_linha": 11, "tx_situacao_metro_trem": "OPERANDO", "nm_linha_metro_trem": "CORAL", "nm_empresa_metro_trem": "CPTM", "cd_tipo_transporte": 2}}, {"type": "Feature", "id": "estacao_trem.3007", "geometry": {"type": "Point", "coordinates": [343229.0636, 7385028.545]}, "geometry_name": "ge_ponto", "properties": {"cd_identificador": 3007, "cd_identificador_empresa_metro_trem": 2, "nm_estacao_metro_trem": "PREFEITO SALADINO", "cd_situacao_estacao_metro_trem": 1, "sg_fonte_original": "CPTM", "cd_identificador_linha": 10, "tx_situacao_metro_trem": "OPERANDO", "nm_linha_metro_trem": "TURQUESA", "nm_empresa_metro_trem": "CPTM", "cd_tipo_transporte": 2}}, {"type": "Feature", "id": "estacao_trem.3008", "geometry": {"type": "Point", "coordinates": [355799.1303, 7376740.2118]}, "geometry_name": "ge_ponto", "properties": {"cd_identificador": 3008, "cd_identificador_empresa_metro_trem": 2, "nm_estacao_metro_trem": "RIBEIRÃO PIRES", "cd_situacao_estacao_metro_trem": 1, "sg_fonte_original": "CPTM", "cd_identificador_linha": 10, "tx_situacao_metro_trem": "OPERANDO", "nm_linha_metro_trem": "TURQUESA", "nm_empresa_metro_trem": "CPTM", "cd_tipo_transporte": 2}}, {"type": "Feature", "id": "estacao_trem.3009", "geometry": {"type": "Point", "coordinates": [358170.5496, 7373477.0499]}, "geometry_name": "ge_ponto", "properties": {"cd_identificador": 3009, "cd_identificador_empresa_metro_trem": 2, "nm_estacao_metro_trem": "RIO GRANDE DA SERRA", "cd_situacao_estacao_metro_trem": 1, "sg_fonte_original": "CPTM", "cd_identificador_linha": 10, "tx_situacao_metro_trem": "OPERANDO", "nm_linha_metro_trem": "TURQUESA", "nm_empresa_metro_trem": "CPTM", "cd_tipo_transporte": 2}}, {"type": "Feature", "id": "estacao_trem.3010", "geometry": {"type": "Point", "coordinates": [339816.2446, 7388088.8287]}, "geometry_name": "ge_ponto", "properties": {"cd_identificador": 3010, "cd_identificador_empresa_metro_trem": 2, "nm_estacao_metro_trem": "SÃO CAETANO", "cd_situacao_estacao_metro_trem": 1, "sg_fonte_original": "CPTM", "cd_identificador_linha": 10, "tx_situacao_metro_trem": "OPERANDO", "nm_linha_metro_trem": "TURQUESA", "nm_empresa_metro_trem": "CPTM", "cd_tipo_transporte": 2}}, {"type": "Feature", "id": "estacao_trem.3011", "geometry": {"type": "Point", "coordinates": [352574.3596, 7401436.5566]}, "geometry_name": "ge_ponto", "properties": {"cd_identificador": 3011, "cd_identificador_empresa_metro_trem": 2, "nm_estacao_metro_trem": "SÃO MIGUEL PAULISTA", "cd_situacao_estacao_metro_trem": 1, "sg_fonte_original": "CPTM", "cd_identificador_linha": 12, "tx_situacao_metro_trem": "OPERANDO", "nm_linha_metro_trem": "SAFIRA", "nm_empresa_metro_trem": "CPTM", "cd_tipo_transporte": 2}}, {"type": "Feature", "id": "estacao_trem.3012", "geometry": {"type": "Point", "coordinates": [366475.8013, 7396758.6912]}, "geometry_name": "ge_ponto", "properties": {"cd_identificador": 3012, "cd_identificador_empresa_metro_trem": 2, "nm_estacao_metro_trem": "SUZANO", "cd_situacao_estacao_metro_trem": 1, "sg_fonte_original": "CPTM", "cd_identificador_linha": 11, "tx_situacao_metro_trem": "OPERANDO", "nm_linha_metro_trem": "CORAL", "nm_empresa_metro_trem": "CPTM", "cd_tipo_transporte": 2}}, {"type": "Feature", "id": "estacao_trem.3013", "geometry": {"type": "Point", "coordinates": [337819.8638, 7389959.6313]}, "geometry_name": "ge_ponto", "properties": {"cd_identificador": 3013, "cd_identificador_empresa_metro_trem": 2, "nm_estacao_metro_trem": "TAMANDUATEÍ", "cd_situacao_estacao_metro_trem": 1, "sg_fonte_original": "CPTM", "cd_identificador_linha": 10, "tx_situacao_metro_trem": "OPERANDO", "nm_linha_metro_trem": "TURQUESA", "nm_empresa_metro_trem": "CPTM", "cd_tipo_transporte": 2}}, {"type": "Feature", "id": "estacao_trem.3014", "geometry": {"type": "Point", "coordinates": [342477.2837, 7386300.4067]}, "geometry_name": "ge_ponto", "properties": {"cd_identificador": 3014, "cd_identificador_empresa_metro_trem": 2, "nm_estacao_metro_trem": "UTINGA", "cd_situacao_estacao_metro_trem": 1, "sg_fonte_original": "CPTM", "cd_identificador_linha": 10, "tx_situacao_metro_trem": "OPERANDO", "nm_linha_metro_trem": "TURQUESA", "nm_empresa_metro_trem": "CPTM", "cd_tipo_transporte": 2}}, {"type": "Feature", "id": "estacao_trem.3015", "geometry": {"type": "Point", "coordinates": [312819.7532, 7432167.3786]}, "geometry_name": "ge_ponto", "properties": {"cd_identificador": 3015, "cd_identificador_empresa_metro_trem": 2, "nm_estacao_metro_trem": "VÁRZEA PAULISTA", "cd_situacao_estacao_metro_trem": 1, "sg_fonte_original": "CPTM", "cd_identificador_linha": 7, "tx_situacao_metro_trem": "OPERANDO", "nm_linha_metro_trem": "RUBI", "nm_empresa_metro_trem": "CPTM", "cd_tipo_transporte": 2}}, {"type": "Feature", "id": "estacao_trem.3016", "geometry": {"type": "Point", "coordinates": [321861.2118, 7403380.4774]}, "geometry_name": "ge_ponto", "properties": {"cd_identificador": 3016, "cd_identificador_empresa_metro_trem": 2, "nm_estacao_metro_trem": "VILA CLARICE", "cd_situacao_estacao_metro_trem": 1, "sg_fonte_original": "CPTM", "cd_identificador_linha": 7, "tx_situacao_metro_trem": "OPERANDO", "nm_linha_metro_trem": "RUBI", "nm_empresa_metro_trem": "CPTM", "cd_tipo_transporte": 2}}, {"type": "Feature", "id": "estacao_trem.3017", "geometry": {"type": "Point", "coordinates": [321489.9678, 7406970.063]}, "geometry_name": "ge_ponto", "properties": {"cd_identificador": 3017, "cd_identificador_empresa_metro_trem": 2, "nm_estacao_metro_trem": "VILA AURORA", "cd_situacao_estacao_metro_trem": 1, "sg_fonte_original": "CPTM", "cd_identificador_linha": 7, "tx_situacao_metro_trem": "OPERANDO", "nm_linha_metro_trem": "RUBI", "nm_empresa_metro_trem": "CPTM", "cd_tipo_transporte": 2}}, {"type": "Feature", "id": "estacao_trem.3018", "geometry": {"type": "Point", "coordinates": [347421.3428, 7406155.6997]}, "geometry_name": "ge_ponto", "properties": {"cd_identificador": 3018, "cd_identificador_empresa_metro_trem": 2, "nm_estacao_metro_trem": "GUARULHOS CECAP", "cd_situacao_estacao_metro_trem": 1, "sg_fonte_original": "CPTM", "cd_identificador_linha": 13, "tx_situacao_metro_trem": "OPERANDO", "nm_linha_metro_trem": "JADE", "nm_empresa_metro_trem": "CPTM", "cd_tipo_transporte": 2}}, {"type": "Feature", "id": "estacao_trem.3019", "geometry": {"type": "Point", "coordinates": [303118.6207, 7395904.5854]}, "geometry_name": "ge_ponto", "properties": {"cd_identificador": 3019, "cd_identificador_empresa_metro_trem": 6, "nm_estacao_metro_trem": "ENGENHEIRO CARDOSO", "cd_situacao_estacao_metro_trem": 1, "sg_fonte_original": "CPTM", "cd_identificador_linha": 8, "tx_situacao_metro_trem": "OPERANDO", "nm_linha_metro_trem": "DIAMANTE", "nm_empresa_metro_trem": "VIAMOBILIDADE", "cd_tipo_transporte": 2}}, {"type": "Feature", "id": "estacao_trem.3020", "geometry": {"type": "Point", "coordinates": [324163.9877, 7384545.0488]}, "geometry_name": "ge_ponto", "properties": {"cd_identificador": 3020, "cd_identificador_empresa_metro_trem": 6, "nm_estacao_metro_trem": "JOÃO DIAS", "cd_situacao_estacao_metro_trem": 1, "sg_fonte_original": "CPTM", "cd_identificador_linha": 9, "tx_situacao_metro_trem": "OPERANDO", "nm_linha_metro_trem": "ESMERALDA", "nm_empresa_metro_trem": "VIAMOBILIDADE", "cd_tipo_transporte": 2}}, {"type": "Feature", "id": "estacao_trem.3021", "geometry": {"type": "Point", "coordinates": [337068.8778, 7391087.4852]}, "geometry_name": "ge_ponto", "properties": {"cd_identificador": 3021, "cd_identificador_empresa_metro_trem": 2, "nm_estacao_metro_trem": "IPIRANGA", "cd_situacao_estacao_metro_trem": 1, "sg_fonte_original": "CPTM", "cd_identificador_linha": 10, "tx_situacao_metro_trem": "OPERANDO", "nm_linha_metro_trem": "TURQUESA", "nm_empresa_metro_trem": "CPTM", "cd_tipo_transporte": 2}}, {"type": "Feature", "id": "estacao_trem.3022", "geometry": {"type": "Point", "coordinates": [356839.4013, 7401110.7131]}, "geometry_name": "ge_ponto", "properties": {"cd_identificador": 3022, "cd_identificador_empresa_metro_trem": 2, "nm_estacao_metro_trem": "ITAIM PAULISTA", "cd_situacao_estacao_metro_trem": 1, "sg_fonte_original": "CPTM", "cd_identificador_linha": 12, "tx_situacao_metro_trem": "OPERANDO", "nm_linha_metro_trem": "SAFIRA", "nm_empresa_metro_trem": "CPTM", "cd_tipo_transporte": 2}}, {"type": "Feature", "id": "estacao_trem.3023", "geometry": {"type": "Point", "coordinates": [362357.7802, 7402018.145]}, "geometry_name": "ge_ponto", "properties": {"cd_identificador": 3023, "cd_identificador_empresa_metro_trem": 2, "nm_estacao_metro_trem": "ITAQUAQUECETUBA", "cd_situacao_estacao_metro_trem": 1, "sg_fonte_original": "CPTM", "cd_identificador_linha": 12, "tx_situacao_metro_trem": "OPERANDO", "nm_linha_metro_trem": "SAFIRA", "nm_empresa_metro_trem": "CPTM", "cd_tipo_transporte": 2}}, {"type": "Feature", "id": "estacao_trem.3024", "geometry": {"type": "Point", "coordinates": [347392.5767, 7407748.3872]}, "geometry_name": "ge_ponto", "properties": {"cd_identificador": 3024, "cd_identificador_empresa_metro_trem": 2, "nm_estacao_metro_trem": "AEROPORTO GUARULHOS", "cd_situacao_estacao_metro_trem": 1, "sg_fonte_original": "CPTM", "cd_identificador_linha": 13, "tx_situacao_metro_trem": "OPERANDO", "nm_linha_metro_trem": "JADE", "nm_empresa_metro_trem": "CPTM", "cd_tipo_transporte": 2}}, {"type": "Feature", "id": "estacao_trem.3025", "geometry": {"type": "Point", "coordinates": [363980.8375, 7397654.0148]}, "geometry_name": "ge_ponto", "properties": {"cd_identificador": 3025, "cd_identificador_empresa_metro_trem": 2, "nm_estacao_metro_trem": "CALMON VIANA", "cd_situacao_estacao_metro_trem": 1, "sg_fonte_original": "CPTM", "cd_identificador_linha": 11, "tx_situacao_metro_trem": "OPERANDO", "nm_linha_metro_trem": "CORAL", "nm_empresa_metro_trem": "CPTM", "cd_tipo_transporte": 2}}, {"type": "Feature", "id": "estacao_trem.3026", "geometry": {"type": "Point", "coordinates": [363980.8375, 7397654.0148]}, "geometry_name": "ge_ponto", "properties": {"cd_identificador": 3026, "cd_identificador_empresa_metro_trem": 2, "nm_estacao_metro_trem": "CALMON VIANA", "cd_situacao_estacao_metro_trem": 1, "sg_fonte_original": "CPTM", "cd_identificador_linha": 12, "tx_situacao_metro_trem": "OPERANDO", "nm_linha_metro_trem": "SAFIRA", "nm_empresa_metro_trem": "CPTM", "cd_tipo_transporte": 2}}, {"type": "Feature", "id": "estacao_trem.3027", "geometry": {"type": "Point", "coordinates": [308378.796, 7433640.7561]}, "geometry_name": "ge_ponto", "properties": {"cd_identificador": 3027, "cd_identificador_empresa_metro_trem": 2, "nm_estacao_metro_trem": "JUNDIAÍ", "cd_situacao_estacao_metro_trem": 1, "sg_fonte_original": "CPTM", "cd_identificador_linha": 7, "tx_situacao_metro_trem": "OPERANDO", "nm_linha_metro_trem": "RUBI", "nm_empresa_metro_trem": "CPTM", "cd_tipo_transporte": 2}}, {"type": "Feature", "id": "estacao_trem.3028", "geometry": {"type": "Point", "coordinates": [344127.8519, 7383458.0493]}, "geometry_name": "ge_ponto", "properties": {"cd_identificador": 3028, "cd_identificador_empresa_metro_trem": 2, "nm_estacao_metro_trem": "PREFEITO CELSO DANIEL - SANTO ANDRÉ", "cd_situacao_estacao_metro_trem": 1, "sg_fonte_original": "CPTM", "cd_identificador_linha": 10, "tx_situacao_metro_trem": "OPERANDO", "nm_linha_metro_trem": "TURQUESA", "nm_empresa_metro_trem": "CPTM", "cd_tipo_transporte": 2}}, {"type": "Feature", "id": "estacao_trem.3029", "geometry": {"type": "Point", "coordinates": [349832.3619, 7395702.1053]}, "geometry_name": "ge_ponto", "properties": {"cd_identificador": 3029, "cd_identificador_empresa_metro_trem": 2, "nm_estacao_metro_trem": "CORINTHIANS - ITAQUERA", "cd_situacao_estacao_metro_trem": 1, "sg_fonte_original": "CPTM", "cd_identificador_linha": 11, "tx_situacao_metro_trem": "OPERANDO", "nm_linha_metro_trem": "CORAL", "nm_empresa_metro_trem": "CPTM", "cd_tipo_transporte": 2}}, {"type": "Feature", "id": "estacao_trem.3030", "geometry": {"type": "Point", "coordinates": [352181.6361, 7395755.0342]}, "geometry_name": "ge_ponto", "properties": {"cd_identificador": 3030, "cd_identificador_empresa_metro_trem": 2, "nm_estacao_metro_trem": "DOM BOSCO", "cd_situacao_estacao_metro_trem": 1, "sg_fonte_original": "CPTM", "cd_identificador_linha": 11, "tx_situacao_metro_trem": "OPERANDO", "nm_linha_metro_trem": "CORAL", "nm_empresa_metro_trem": "CPTM", "cd_tipo_transporte": 2}}, {"type": "Feature", "id": "estacao_trem.3031", "geometry": {"type": "Point", "coordinates": [353875.593, 7396075.2142]}, "geometry_name": "ge_ponto", "properties": {"cd_identificador": 3031, "cd_identificador_empresa_metro_trem": 2, "nm_estacao_metro_trem": "JOSÉ BONIFÁCIO", "cd_situacao_estacao_metro_trem": 1, "sg_fonte_original": "CPTM", "cd_identificador_linha": 11, "tx_situacao_metro_trem": "OPERANDO", "nm_linha_metro_trem": "CORAL", "nm_empresa_metro_trem": "CPTM", "cd_tipo_transporte": 2}}, {"type": "Feature", "id": "estacao_trem.3032", "geometry": {"type": "Point", "coordinates": [354904.3515, 7401219.0133]}, "geometry_name": "ge_ponto", "properties": {"cd_identificador": 3032, "cd_identificador_empresa_metro_trem": 2, "nm_estacao_metro_trem": "JARDIM HELENA - VILA MARA", "cd_situacao_estacao_metro_trem": 1, "sg_fonte_original": "CPTM", "cd_identificador_linha": 12, "tx_situacao_metro_trem": "OPERANDO", "nm_linha_metro_trem": "SAFIRA", "nm_empresa_metro_trem": "CPTM", "cd_tipo_transporte": 2}}, {"type": "Feature", "id": "estacao_trem.3033", "geometry": {"type": "Point", "coordinates": [358525.6304, 7402127.1779]}, "geometry_name": "ge_ponto", "properties": {"cd_identificador": 3033, "cd_identificador_empresa_metro_trem": 2, "nm_estacao_metro_trem": "JARDIM ROMANO", "cd_situacao_estacao_metro_trem": 1, "sg_fonte_original": "CPTM", "cd_identificador_linha": 12, "tx_situacao_metro_trem": "OPERANDO", "nm_linha_metro_trem": "SAFIRA", "nm_empresa_metro_trem": "CPTM", "cd_tipo_transporte": 2}}, {"type": "Feature", "id": "estacao_trem.3034", "geometry": {"type": "Point", "coordinates": [327558.9794, 7397740.9999]}, "geometry_name": "ge_ponto", "properties": {"cd_identificador": 3034, "cd_identificador_empresa_metro_trem": 2, "nm_estacao_metro_trem": "ÁGUA BRANCA", "cd_situacao_estacao_metro_trem": 1, "sg_fonte_original": "CPTM", "cd_identificador_linha": 7, "tx_situacao_metro_trem": "OPERANDO", "nm_linha_metro_trem": "RUBI", "nm_empresa_metro_trem": "CPTM", "cd_tipo_transporte": 2}}, {"type": "Feature", "id": "estacao_trem.3035", "geometry": {"type": "Point", "coordinates": [358775.6415, 7394430.2149]}, "geometry_name": "ge_ponto", "properties": {"cd_identificador": 3035, "cd_identificador_empresa_metro_trem": 2, "nm_estacao_metro_trem": "ANTONIO GIANETTI NETO", "cd_situacao_estacao_metro_trem": 1, "sg_fonte_original": "CPTM", "cd_identificador_linha": 11, "tx_situacao_metro_trem": "OPERANDO", "nm_linha_metro_trem": "CORAL", "nm_empresa_metro_trem": "CPTM", "cd_tipo_transporte": 2}}, {"type": "Feature", "id": "estacao_trem.3036", "geometry": {"type": "Point", "coordinates": [363270.3809, 7400520.2865]}, "geometry_name": "ge_ponto", "properties": {"cd_identificador": 3036, "cd_identificador_empresa_metro_trem": 2, "nm_estacao_metro_trem": "ARACARÉ", "cd_situacao_estacao_metro_trem": 1, "sg_fonte_original": "CPTM", "cd_identificador_linha": 12, "tx_situacao_metro_trem": "OPERANDO", "nm_linha_metro_trem": "SAFIRA", "nm_empresa_metro_trem": "CPTM", "cd_tipo_transporte": 2}}, {"type": "Feature", "id": "estacao_trem.3037", "geometry": {"type": "Point", "coordinates": [323748.2617, 7421125.3928]}, "geometry_name": "ge_ponto", "properties": {"cd_identificador": 3037, "cd_identificador_empresa_metro_trem": 2, "nm_estacao_metro_trem": "BALTAZAR FIDELIS", "cd_situacao_estacao_metro_trem": 1, "sg_fonte_original": "CPTM", "cd_identificador_linha": 7, "tx_situacao_metro_trem": "OPERANDO", "nm_linha_metro_trem": "RUBI", "nm_empresa_metro_trem": "CPTM", "cd_tipo_transporte": 2}}, {"type": "Feature", "id": "estacao_trem.3038", "geometry": {"type": "Point", "coordinates": [319136.1792, 7429272.9578]}, "geometry_name": "ge_ponto", "properties": {"cd_identificador": 3038, "cd_identificador_empresa_metro_trem": 2, "nm_estacao_metro_trem": "BOTUJURU", "cd_situacao_estacao_metro_trem": 1, "sg_fonte_original": "CPTM", "cd_identificador_linha": 7, "tx_situacao_metro_trem": "OPERANDO", "nm_linha_metro_trem": "RUBI", "nm_empresa_metro_trem": "CPTM", "cd_tipo_transporte": 2}}, {"type": "Feature", "id": "estacao_trem.3039", "geometry": {"type": "Point", "coordinates": [374900.8864, 7396575.5692]}, "geometry_name": "ge_ponto", "properties": {"cd_identificador": 3039, "cd_identificador_empresa_metro_trem": 2, "nm_estacao_metro_trem": "BRÁS CUBAS", "cd_situacao_estacao_metro_trem": 1, "sg_fonte_original": "CPTM", "cd_identificador_linha": 11, "tx_situacao_metro_trem": "OPERANDO", "nm_linha_metro_trem": "CORAL", "nm_empresa_metro_trem": "CPTM", "cd_tipo_transporte": 2}}, {"type": "Feature", "id": "estacao_trem.3040", "geometry": {"type": "Point", "coordinates": [320958.4594, 7414846.948]}, "geometry_name": "ge_ponto", "properties": {"cd_identificador": 3040, "cd_identificador_empresa_metro_trem": 2, "nm_estacao_metro_trem": "CAIEIRAS", "cd_situacao_estacao_metro_trem": 1, "sg_fonte_original": "CPTM", "cd_identificador_linha": 7, "tx_situacao_metro_trem": "OPERANDO", "nm_linha_metro_trem": "RUBI", "nm_empresa_metro_trem": "CPTM", "cd_tipo_transporte": 2}}, {"type": "Feature", "id": "estacao_trem.3041", "geometry": {"type": "Point", "coordinates": [318700.0073, 7396934.9348]}, "geometry_name": "ge_ponto", "properties": {"cd_identificador": 3041, "cd_identificador_empresa_metro_trem": 6, "nm_estacao_metro_trem": "OSASCO", "cd_situacao_estacao_metro_trem": 1, "sg_fonte_original": "CPTM", "cd_identificador_linha": 8, "tx_situacao_metro_trem": "OPERANDO", "nm_linha_metro_trem": "DIAMANTE", "nm_empresa_metro_trem": "VIAMOBILIDADE", "cd_tipo_transporte": 2}}, {"type": "Feature", "id": "estacao_trem.3042", "geometry": {"type": "Point", "coordinates": [318700.0073, 7396934.9348]}, "geometry_name": "ge_ponto", "properties": {"cd_identificador": 3042, "cd_identificador_empresa_metro_trem": 6, "nm_estacao_metro_trem": "OSASCO", "cd_situacao_estacao_metro_trem": 1, "sg_fonte_original": "CPTM", "cd_identificador_linha": 9, "tx_situacao_metro_trem": "OPERANDO", "nm_linha_metro_trem": "ESMERALDA", "nm_empresa_metro_trem": "VIAMOBILIDADE", "cd_tipo_transporte": 2}}, {"type": "Feature", "id": "estacao_trem.3043", "geometry": {"type": "Point", "coordinates": [317299.84, 7432477.6801]}, "geometry_name": "ge_ponto", "properties": {"cd_identificador": 3043, "cd_identificador_empresa_metro_trem": 2, "nm_estacao_metro_trem": "CAMPO LIMPO PAULISTA", "cd_situacao_estacao_metro_trem": 1, "sg_fonte_original": "CPTM", "cd_identificador_linha": 7, "tx_situacao_metro_trem": "OPERANDO", "nm_linha_metro_trem": "RUBI", "nm_empresa_metro_trem": "CPTM", "cd_tipo_transporte": 2}}, {"type": "Feature", "id": "estacao_trem.3044", "geometry": {"type": "Point", "coordinates": [348030.266, 7382804.9801]}, "geometry_name": "ge_ponto", "properties": {"cd_identificador": 3044, "cd_identificador_empresa_metro_trem": 2, "nm_estacao_metro_trem": "CAPUAVA", "cd_situacao_estacao_metro_trem": 1, "sg_fonte_original": "CPTM", "cd_identificador_linha": 10, "tx_situacao_metro_trem": "OPERANDO", "nm_linha_metro_trem": "TURQUESA", "nm_empresa_metro_trem": "CPTM", "cd_tipo_transporte": 2}}, {"type": "Feature", "id": "estacao_trem.3045", "geometry": {"type": "Point", "coordinates": [360257.2382, 7402748.0407]}, "geometry_name": "ge_ponto", "properties": {"cd_identificador": 3045, "cd_identificador_empresa_metro_trem": 2, "nm_estacao_metro_trem": "ENGENHEIRO MANOEL FEIO", "cd_situacao_estacao_metro_trem": 1, "sg_fonte_original": "CPTM", "cd_identificador_linha": 12, "tx_situacao_metro_trem": "OPERANDO", "nm_linha_metro_trem": "SAFIRA", "nm_empresa_metro_trem": "CPTM", "cd_tipo_transporte": 2}}, {"type": "Feature", "id": "estacao_trem.3046", "geometry": {"type": "Point", "coordinates": [379033.636, 7398896.4756]}, "geometry_name": "ge_ponto", "properties": {"cd_identificador": 3046, "cd_identificador_empresa_metro_trem": 2, "nm_estacao_metro_trem": "ESTUDANTES", "cd_situacao_estacao_metro_trem": 1, "sg_fonte_original": "CPTM", "cd_identificador_linha": 11, "tx_situacao_metro_trem": "OPERANDO", "nm_linha_metro_trem": "CORAL", "nm_empresa_metro_trem": "CPTM", "cd_tipo_transporte": 2}}, {"type": "Feature", "id": "estacao_trem.3047", "geometry": {"type": "Point", "coordinates": [360333.3394, 7395951.0978]}, "geometry_name": "ge_ponto", "properties": {"cd_identificador": 3047, "cd_identificador_empresa_metro_trem": 2, "nm_estacao_metro_trem": "FERRAZ DE VASCONCELOS", "cd_situacao_estacao_metro_trem": 1, "sg_fonte_original": "CPTM", "cd_identificador_linha": 11, "tx_situacao_metro_trem": "OPERANDO", "nm_linha_metro_trem": "CORAL", "nm_empresa_metro_trem": "CPTM", "cd_tipo_transporte": 2}}, {"type": "Feature", "id": "estacao_trem.3048", "geometry": {"type": "Point", "coordinates": [321775.0745, 7424225.8185]}, "geometry_name": "ge_ponto", "properties": {"cd_identificador": 3048, "cd_identificador_empresa_metro_trem": 2, "nm_estacao_metro_trem": "FRANCISCO MORATO", "cd_situacao_estacao_metro_trem": 1, "sg_fonte_original": "CPTM", "cd_identificador_linha": 7, "tx_situacao_metro_trem": "OPERANDO", "nm_linha_metro_trem": "RUBI", "nm_empresa_metro_trem": "CPTM", "cd_tipo_transporte": 2}}, {"type": "Feature", "id": "estacao_trem.3049", "geometry": {"type": "Point", "coordinates": [323500.8109, 7418935.5337]}, "geometry_name": "ge_ponto", "properties": {"cd_identificador": 3049, "cd_identificador_empresa_metro_trem": 2, "nm_estacao_metro_trem": "FRANCO DA ROCHA", "cd_situacao_estacao_metro_trem": 1, "sg_fonte_original": "CPTM", "cd_identificador_linha": 7, "tx_situacao_metro_trem": "OPERANDO", "nm_linha_metro_trem": "RUBI", "nm_empresa_metro_trem": "CPTM", "cd_tipo_transporte": 2}}, {"type": "Feature", "id": "estacao_trem.3050", "geometry": {"type": "Point", "coordinates": [352276.7488, 7379118.6181]}, "geometry_name": "ge_ponto", "properties": {"cd_identificador": 3050, "cd_identificador_empresa_metro_trem": 2, "nm_estacao_metro_trem": "GUAPITUBA", "cd_situacao_estacao_metro_trem": 1, "sg_fonte_original": "CPTM", "cd_identificador_linha": 10, "tx_situacao_metro_trem": "OPERANDO", "nm_linha_metro_trem": "TURQUESA", "nm_empresa_metro_trem": "CPTM", "cd_tipo_transporte": 2}}, {"type": "Feature", "id": "estacao_trem.3051", "geometry": {"type": "Point", "coordinates": [322604.6592, 7397425.0455]}, "geometry_name": "ge_ponto", "properties": {"cd_identificador": 3051, "cd_identificador_empresa_metro_trem": 6, "nm_estacao_metro_trem": "IMPERATRIZ LEOPOLDINA", "cd_situacao_estacao_metro_trem": 1, "sg_fonte_original": "CPTM", "cd_identificador_linha": 8, "tx_situacao_metro_trem": "OPERANDO", "nm_linha_metro_trem": "DIAMANTE", "nm_empresa_metro_trem": "VIAMOBILIDADE", "cd_tipo_transporte": 2}}, {"type": "Feature", "id": "estacao_trem.3052", "geometry": {"type": "Point", "coordinates": [305782.8659, 7396773.8966]}, "geometry_name": "ge_ponto", "properties": {"cd_identificador": 3052, "cd_identificador_empresa_metro_trem": 6, "nm_estacao_metro_trem": "JANDIRA", "cd_situacao_estacao_metro_trem": 1, "sg_fonte_original": "CPTM", "cd_identificador_linha": 8, "tx_situacao_metro_trem": "OPERANDO", "nm_linha_metro_trem": "DIAMANTE", "nm_empresa_metro_trem": "VIAMOBILIDADE", "cd_tipo_transporte": 2}}, {"type": "Feature", "id": "estacao_trem.3053", "geometry": {"type": "Point", "coordinates": [307100.4649, 7398310.3618]}, "geometry_name": "ge_ponto", "properties": {"cd_identificador": 3053, "cd_identificador_empresa_metro_trem": 6, "nm_estacao_metro_trem": "JARDIM BELVAL", "cd_situacao_estacao_metro_trem": 1, "sg_fonte_original": "CPTM", "cd_identificador_linha": 8, "tx_situacao_metro_trem": "OPERANDO", "nm_linha_metro_trem": "DIAMANTE", "nm_empresa_metro_trem": "VIAMOBILIDADE", "cd_tipo_transporte": 2}}, {"type": "Feature", "id": "estacao_trem.3054", "geometry": {"type": "Point", "coordinates": [306674.0982, 7397212.948]}, "geometry_name": "ge_ponto", "properties": {"cd_identificador": 3054, "cd_identificador_empresa_metro_trem": 6, "nm_estacao_metro_trem": "JARDIM SILVEIRA", "cd_situacao_estacao_metro_trem": 1, "sg_fonte_original": "CPTM", "cd_identificador_linha": 8, "tx_situacao_metro_trem": "OPERANDO", "nm_linha_metro_trem": "DIAMANTE", "nm_empresa_metro_trem": "VIAMOBILIDADE", "cd_tipo_transporte": 2}}, {"type": "Feature", "id": "estacao_trem.3055", "geometry": {"type": "Point", "coordinates": [332480.7695, 7396561.9111]}, "geometry_name": "ge_ponto", "properties": {"cd_identificador": 3055, "cd_identificador_empresa_metro_trem": 6, "nm_estacao_metro_trem": "JÚLIO PRESTES", "cd_situacao_estacao_metro_trem": 1, "sg_fonte_original": "CPTM", "cd_identificador_linha": 8, "tx_situacao_metro_trem": "OPERANDO", "nm_linha_metro_trem": "DIAMANTE", "nm_empresa_metro_trem": "VIAMOBILIDADE", "cd_tipo_transporte": 2}}, {"type": "Feature", "id": "estacao_trem.3056", "geometry": {"type": "Point", "coordinates": [326540.2634, 7397869.8132]}, "geometry_name": "ge_ponto", "properties": {"cd_identificador": 3056, "cd_identificador_empresa_metro_trem": 6, "nm_estacao_metro_trem": "LAPA (LINHA 8)", "cd_situacao_estacao_metro_trem": 1, "sg_fonte_original": "CPTM", "cd_identificador_linha": 8, "tx_situacao_metro_trem": "OPERANDO", "nm_linha_metro_trem": "DIAMANTE", "nm_empresa_metro_trem": "VIAMOBILIDADE", "cd_tipo_transporte": 2}}, {"type": "Feature", "id": "estacao_trem.3057", "geometry": {"type": "Point", "coordinates": [324660.6185, 7382779.4147]}, "geometry_name": "ge_ponto", "properties": {"cd_identificador": 3057, "cd_identificador_empresa_metro_trem": 6, "nm_estacao_metro_trem": "SANTO AMARO (LINHA 9)", "cd_situacao_estacao_metro_trem": 1, "sg_fonte_original": "CPTM", "cd_identificador_linha": 9, "tx_situacao_metro_trem": "OPERANDO", "nm_linha_metro_trem": "ESMERALDA", "nm_empresa_metro_trem": "VIAMOBILIDADE", "cd_tipo_transporte": 2}}, {"type": "Feature", "id": "estacao_trem.3058", "geometry": {"type": "Point", "coordinates": [315539.7224, 7397440.952]}, "geometry_name": "ge_ponto", "properties": {"cd_identificador": 3058, "cd_identificador_empresa_metro_trem": 6, "nm_estacao_metro_trem": "QUITAÚNA", "cd_situacao_estacao_metro_trem": 1, "sg_fonte_original": "CPTM", "cd_identificador_linha": 8, "tx_situacao_metro_trem": "OPERANDO", "nm_linha_metro_trem": "DIAMANTE", "nm_empresa_metro_trem": "VIAMOBILIDADE", "cd_tipo_transporte": 2}}, {"type": "Feature", "id": "estacao_trem.3059", "geometry": {"type": "Point", "coordinates": [304278.597, 7396594.7079]}, "geometry_name": "ge_ponto", "properties": {"cd_identificador": 3059, "cd_identificador_empresa_metro_trem": 6, "nm_estacao_metro_trem": "SAGRADO CORAÇÃO", "cd_situacao_estacao_metro_trem": 1, "sg_fonte_original": "CPTM", "cd_identificador_linha": 8, "tx_situacao_metro_trem": "OPERANDO", "nm_linha_metro_trem": "DIAMANTE", "nm_empresa_metro_trem": "VIAMOBILIDADE", "cd_tipo_transporte": 2}}, {"type": "Feature", "id": "estacao_trem.3060", "geometry": {"type": "Point", "coordinates": [311325.1776, 7398078.9213]}, "geometry_name": "ge_ponto", "properties": {"cd_identificador": 3060, "cd_identificador_empresa_metro_trem": 6, "nm_estacao_metro_trem": "SANTA TEREZINHA", "cd_situacao_estacao_metro_trem": 1, "sg_fonte_original": "CPTM", "cd_identificador_linha": 8, "tx_situacao_metro_trem": "OPERANDO", "nm_linha_metro_trem": "DIAMANTE", "nm_empresa_metro_trem": "VIAMOBILIDADE", "cd_tipo_transporte": 2}}, {"type": "Feature", "id": "estacao_trem.3061", "geometry": {"type": "Point", "coordinates": [323122.1006, 7394965.162]}, "geometry_name": "ge_ponto", "properties": {"cd_identificador": 3061, "cd_identificador_empresa_metro_trem": 6, "nm_estacao_metro_trem": "VILLA-LOBOS - JAGUARÉ", "cd_situacao_estacao_metro_trem": 1, "sg_fonte_original": "CPTM", "cd_identificador_linha": 9, "tx_situacao_metro_trem": "OPERANDO", "nm_linha_metro_trem": "ESMERALDA", "nm_empresa_metro_trem": "VIAMOBILIDADE", "cd_tipo_transporte": 2}}, {"type": "Feature", "id": "estacao_trem.3062", "geometry": {"type": "Point", "coordinates": [302408.8761, 7394687.3354]}, "geometry_name": "ge_ponto", "properties": {"cd_identificador": 3062, "cd_identificador_empresa_metro_trem": 6, "nm_estacao_metro_trem": "ITAPEVI", "cd_situacao_estacao_metro_trem": 1, "sg_fonte_original": "CPTM", "cd_identificador_linha": 8, "tx_situacao_metro_trem": "OPERANDO", "nm_linha_metro_trem": "DIAMANTE", "nm_empresa_metro_trem": "VIAMOBILIDADE", "cd_tipo_transporte": 2}}, {"type": "Feature", "id": "estacao_trem.3063", "geometry": {"type": "Point", "coordinates": [326428.5449, 7380449.431]}, "geometry_name": "ge_ponto", "properties": {"cd_identificador": 3063, "cd_identificador_empresa_metro_trem": 6, "nm_estacao_metro_trem": "JURUBATUBA", "cd_situacao_estacao_metro_trem": 1, "sg_fonte_original": "CPTM", "cd_identificador_linha": 9, "tx_situacao_metro_trem": "OPERANDO", "nm_linha_metro_trem": "ESMERALDA", "nm_empresa_metro_trem": "VIAMOBILIDADE", "cd_tipo_transporte": 2}}, {"type": "Feature", "id": "estacao_trem.3064", "geometry": {"type": "Point", "coordinates": [326859.0708, 7388446.6891]}, "geometry_name": "ge_ponto", "properties": {"cd_identificador": 3064, "cd_identificador_empresa_metro_trem": 6, "nm_estacao_metro_trem": "BERRINI", "cd_situacao_estacao_metro_trem": 1, "sg_fonte_original": "CPTM", "cd_identificador_linha": 9, "tx_situacao_metro_trem": "OPERANDO", "nm_linha_metro_trem": "ESMERALDA", "nm_empresa_metro_trem": "VIAMOBILIDADE", "cd_tipo_transporte": 2}}, {"type": "Feature", "id": "estacao_trem.3065", "geometry": {"type": "Point", "coordinates": [327862.105, 7377241.1205]}, "geometry_name": "ge_ponto", "properties": {"cd_identificador": 3065, "cd_identificador_empresa_metro_trem": 6, "nm_estacao_metro_trem": "AUTÓDROMO", "cd_situacao_estacao_metro_trem": 1, "sg_fonte_original": "CPTM", "cd_identificador_linha": 9, "tx_situacao_metro_trem": "OPERANDO", "nm_linha_metro_trem": "ESMERALDA", "nm_empresa_metro_trem": "VIAMOBILIDADE", "cd_tipo_transporte": 2}}, {"type": "Feature", "id": "estacao_trem.3066", "geometry": {"type": "Point", "coordinates": [326188.6615, 7392737.198]}, "geometry_name": "ge_ponto", "properties": {"cd_identificador": 3066, "cd_identificador_empresa_metro_trem": 6, "nm_estacao_metro_trem": "PINHEIROS", "cd_situacao_estacao_metro_trem": 1, "sg_fonte_original": "CPTM", "cd_identificador_linha": 9, "tx_situacao_metro_trem": "OPERANDO", "nm_linha_metro_trem": "ESMERALDA", "nm_empresa_metro_trem": "VIAMOBILIDADE", "cd_tipo_transporte": 2}}, {"type": "Feature", "id": "estacao_trem.3067", "geometry": {"type": "Point", "coordinates": [314628.6661, 7397362.9476]}, "geometry_name": "ge_ponto", "properties": {"cd_identificador": 3067, "cd_identificador_empresa_metro_trem": 6, "nm_estacao_metro_trem": "GENERAL MIGUEL COSTA", "cd_situacao_estacao_metro_trem": 1, "sg_fonte_original": "CPTM", "cd_identificador_linha": 8, "tx_situacao_metro_trem": "OPERANDO", "nm_linha_metro_trem": "DIAMANTE", "nm_empresa_metro_trem": "VIAMOBILIDADE", "cd_tipo_transporte": 2}}, {"type": "Feature", "id": "estacao_trem.3068", "geometry": {"type": "Point", "coordinates": [327545.6487, 7375448.0346]}, "geometry_name": "ge_ponto", "properties": {"cd_identificador": 3068, "cd_identificador_empresa_metro_trem": 6, "nm_estacao_metro_trem": "PRIMAVERA - INTERLAGOS", "cd_situacao_estacao_metro_trem": 1, "sg_fonte_original": "CPTM", "cd_identificador_linha": 9, "tx_situacao_metro_trem": "OPERANDO", "nm_linha_metro_trem": "ESMERALDA", "nm_empresa_metro_trem": "VIAMOBILIDADE", "cd_tipo_transporte": 2}}, {"type": "Feature", "id": "estacao_trem.3069", "geometry": {"type": "Point", "coordinates": [327027.8613, 7373920.436]}, "geometry_name": "ge_ponto", "properties": {"cd_identificador": 3069, "cd_identificador_empresa_metro_trem": 6, "nm_estacao_metro_trem": "GRAJAÚ", "cd_situacao_estacao_metro_trem": 1, "sg_fonte_original": "CPTM", "cd_identificador_linha": 9, "tx_situacao_metro_trem": "OPERANDO", "nm_linha_metro_trem": "ESMERALDA", "nm_empresa_metro_trem": "VIAMOBILIDADE", "cd_tipo_transporte": 2}}, {"type": "Feature", "id": "estacao_trem.3070", "geometry": {"type": "Point", "coordinates": [326632.0813, 7391951.1942]}, "geometry_name": "ge_ponto", "properties": {"cd_identificador": 3070, "cd_identificador_empresa_metro_trem": 6, "nm_estacao_metro_trem": "HEBRAICA - REBOUÇAS", "cd_situacao_estacao_metro_trem": 1, "sg_fonte_original": "CPTM", "cd_identificador_linha": 9, "tx_situacao_metro_trem": "OPERANDO", "nm_linha_metro_trem": "ESMERALDA", "nm_empresa_metro_trem": "VIAMOBILIDADE", "cd_tipo_transporte": 2}}, {"type": "Feature", "id": "estacao_trem.3071", "geometry": {"type": "Point", "coordinates": [327426.458, 7390641.286]}, "geometry_name": "ge_ponto", "properties": {"cd_identificador": 3071, "cd_identificador_empresa_metro_trem": 6, "nm_estacao_metro_trem": "CIDADE JARDIM", "cd_situacao_estacao_metro_trem": 1, "sg_fonte_original": "CPTM", "cd_identificador_linha": 9, "tx_situacao_metro_trem": "OPERANDO", "nm_linha_metro_trem": "ESMERALDA", "nm_empresa_metro_trem": "VIAMOBILIDADE", "cd_tipo_transporte": 2}}, {"type": "Feature", "id": "estacao_trem.3072", "geometry": {"type": "Point", "coordinates": [327264.1603, 7389761.0352]}, "geometry_name": "ge_ponto", "properties": {"cd_identificador": 3072, "cd_identificador_empresa_metro_trem": 6, "nm_estacao_metro_trem": "VILA OLÍMPIA", "cd_situacao_estacao_metro_trem": 1, "sg_fonte_original": "CPTM", "cd_identificador_linha": 9, "tx_situacao_metro_trem": "OPERANDO", "nm_linha_metro_trem": "ESMERALDA", "nm_empresa_metro_trem": "VIAMOBILIDADE", "cd_tipo_transporte": 2}}, {"type": "Feature", "id": "estacao_trem.3073", "geometry": {"type": "Point", "coordinates": [326386.3631, 7386606.0921]}, "geometry_name": "ge_ponto", "properties": {"cd_identificador": 3073, "cd_identificador_empresa_metro_trem": 6, "nm_estacao_metro_trem": "MORUMBI", "cd_situacao_estacao_metro_trem": 1, "sg_fonte_original": "CPTM", "cd_identificador_linha": 9, "tx_situacao_metro_trem": "OPERANDO", "nm_linha_metro_trem": "ESMERALDA", "nm_empresa_metro_trem": "VIAMOBILIDADE", "cd_tipo_transporte": 2}}, {"type": "Feature", "id": "estacao_trem.3074", "geometry": {"type": "Point", "coordinates": [325326.4791, 7385921.0236]}, "geometry_name": "ge_ponto", "properties": {"cd_identificador": 3074, "cd_identificador_empresa_metro_trem": 6, "nm_estacao_metro_trem": "GRANJA JULIETA", "cd_situacao_estacao_metro_trem": 1, "sg_fonte_original": "CPTM", "cd_identificador_linha": 9, "tx_situacao_metro_trem": "OPERANDO", "nm_linha_metro_trem": "ESMERALDA", "nm_empresa_metro_trem": "VIAMOBILIDADE", "cd_tipo_transporte": 2}}, {"type": "Feature", "id": "estacao_trem.3075", "geometry": {"type": "Point", "coordinates": [325514.4182, 7381985.0869]}, "geometry_name": "ge_ponto", "properties": {"cd_identificador": 3075, "cd_identificador_empresa_metro_trem": 6, "nm_estacao_metro_trem": "SOCORRO", "cd_situacao_estacao_metro_trem": 1, "sg_fonte_original": "CPTM", "cd_identificador_linha": 9, "tx_situacao_metro_trem": "OPERANDO", "nm_linha_metro_trem": "ESMERALDA", "nm_empresa_metro_trem": "VIAMOBILIDADE", "cd_tipo_transporte": 2}}, {"type": "Feature", "id": "estacao_trem.3076", "geometry": {"type": "Point", "coordinates": [310207.0381, 7398036.4942]}, "geometry_name": "ge_ponto", "properties": {"cd_identificador": 3076, "cd_identificador_empresa_metro_trem": 6, "nm_estacao_metro_trem": "ANTÔNIO JOÃO", "cd_situacao_estacao_metro_trem": 1, "sg_fonte_original": "CPTM", "cd_identificador_linha": 8, "tx_situacao_metro_trem": "OPERANDO", "nm_linha_metro_trem": "DIAMANTE", "nm_empresa_metro_trem": "VIAMOBILIDADE", "cd_tipo_transporte": 2}}, {"type": "Feature", "id": "estacao_trem.3077", "geometry": {"type": "Point", "coordinates": [308539.3228, 7398488.1342]}, "geometry_name": "ge_ponto", "properties": {"cd_identificador": 3077, "cd_identificador_empresa_metro_trem": 6, "nm_estacao_metro_trem": "BARUERI", "cd_situacao_estacao_metro_trem": 1, "sg_fonte_original": "CPTM", "cd_identificador_linha": 8, "tx_situacao_metro_trem": "OPERANDO", "nm_linha_metro_trem": "DIAMANTE", "nm_empresa_metro_trem": "VIAMOBILIDADE", "cd_tipo_transporte": 2}}, {"type": "Feature", "id": "estacao_trem.3078", "geometry": {"type": "Point", "coordinates": [312607.7818, 7397878.5082]}, "geometry_name": "ge_ponto", "properties": {"cd_identificador": 3078, "cd_identificador_empresa_metro_trem": 6, "nm_estacao_metro_trem": "CARAPICUÍBA", "cd_situacao_estacao_metro_trem": 1, "sg_fonte_original": "CPTM", "cd_identificador_linha": 8, "tx_situacao_metro_trem": "OPERANDO", "nm_linha_metro_trem": "DIAMANTE", "nm_empresa_metro_trem": "VIAMOBILIDADE", "cd_tipo_transporte": 2}}, {"type": "Feature", "id": "estacao_trem.3079", "geometry": {"type": "Point", "coordinates": [322110.6, 7395905.5253]}, "geometry_name": "ge_ponto", "properties": {"cd_identificador": 3079, "cd_identificador_empresa_metro_trem": 6, "nm_estacao_metro_trem": "CEASA", "cd_situacao_estacao_metro_trem": 1, "sg_fonte_original": "CPTM", "cd_identificador_linha": 9, "tx_situacao_metro_trem": "OPERANDO", "nm_linha_metro_trem": "ESMERALDA", "nm_empresa_metro_trem": "VIAMOBILIDADE", "cd_tipo_transporte": 2}}, {"type": "Feature", "id": "estacao_trem.3080", "geometry": {"type": "Point", "coordinates": [325285.5394, 7393703.8617]}, "geometry_name": "ge_ponto", "properties": {"cd_identificador": 3080, "cd_identificador_empresa_metro_trem": 6, "nm_estacao_metro_trem": "CIDADE UNIVERSITÁRIA", "cd_situacao_estacao_metro_trem": 1, "sg_fonte_original": "CPTM", "cd_identificador_linha": 9, "tx_situacao_metro_trem": "OPERANDO", "nm_linha_metro_trem": "ESMERALDA", "nm_empresa_metro_trem": "VIAMOBILIDADE", "cd_tipo_transporte": 2}}, {"type": "Feature", "id": "estacao_trem.3081", "geometry": {"type": "Point", "coordinates": [316656.4187, 7397135.6733]}, "geometry_name": "ge_ponto", "properties": {"cd_identificador": 3081, "cd_identificador_empresa_metro_trem": 6, "nm_estacao_metro_trem": "COMANDANTE SAMPAIO", "cd_situacao_estacao_metro_trem": 1, "sg_fonte_original": "CPTM", "cd_identificador_linha": 8, "tx_situacao_metro_trem": "OPERANDO", "nm_linha_metro_trem": "DIAMANTE", "nm_empresa_metro_trem": "VIAMOBILIDADE", "cd_tipo_transporte": 2}}, {"type": "Feature", "id": "estacao_trem.3082", "geometry": {"type": "Point", "coordinates": [324243.0806, 7397979.1406]}, "geometry_name": "ge_ponto", "properties": {"cd_identificador": 3082, "cd_identificador_empresa_metro_trem": 6, "nm_estacao_metro_trem": "DOMINGOS DE MORAIS", "cd_situacao_estacao_metro_trem": 1, "sg_fonte_original": "CPTM", "cd_identificador_linha": 8, "tx_situacao_metro_trem": "OPERANDO", "nm_linha_metro_trem": "DIAMANTE", "nm_empresa_metro_trem": "VIAMOBILIDADE", "cd_tipo_transporte": 2}}, {"type": "Feature", "id": "estacao_trem.3083", "geometry": {"type": "Point", "coordinates": [371579.0995, 7395827.2392]}, "geometry_name": "ge_ponto", "properties": {"cd_identificador": 3083, "cd_identificador_empresa_metro_trem": 2, "nm_estacao_metro_trem": "JUNDIAPEBA", "cd_situacao_estacao_metro_trem": 1, "sg_fonte_original": "CPTM", "cd_identificador_linha": 11, "tx_situacao_metro_trem": "OPERANDO", "nm_linha_metro_trem": "CORAL", "nm_empresa_metro_trem": "CPTM", "cd_tipo_transporte": 2}}, {"type": "Feature", "id": "estacao_trem.3084", "geometry": {"type": "Point", "coordinates": [326061.8366, 7398133.2362]}, "geometry_name": "ge_ponto", "properties": {"cd_identificador": 3084, "cd_identificador_empresa_metro_trem": 2, "nm_estacao_metro_trem": "LAPA (LINHA 7)", "cd_situacao_estacao_metro_trem": 1, "sg_fonte_original": "CPTM", "cd_identificador_linha": 7, "tx_situacao_metro_trem": "OPERANDO", "nm_linha_metro_trem": "RUBI", "nm_empresa_metro_trem": "CPTM", "cd_tipo_transporte": 2}}, {"type": "Feature", "id": "estacao_trem.3085", "geometry": {"type": "Point", "coordinates": [301199.4953, 7394799.5877]}, "geometry_name": "ge_ponto", "properties": {"cd_identificador": 3085, "cd_identificador_empresa_metro_trem": 6, "nm_estacao_metro_trem": "SANTA RITA", "cd_situacao_estacao_metro_trem": 1, "sg_fonte_original": "CPTM", "cd_identificador_linha": 8, "tx_situacao_metro_trem": "OPERANDO", "nm_linha_metro_trem": "DIAMANTE", "nm_empresa_metro_trem": "VIAMOBILIDADE", "cd_tipo_transporte": 2}}, {"type": "Feature", "id": "estacao_trem.3086", "geometry": {"type": "Point", "coordinates": [322428.9916, 7404988.1611]}, "geometry_name": "ge_ponto", "properties": {"cd_identificador": 3086, "cd_identificador_empresa_metro_trem": 2, "nm_estacao_metro_trem": "JARAGUÁ", "cd_situacao_estacao_metro_trem": 1, "sg_fonte_original": "CPTM", "cd_identificador_linha": 7, "tx_situacao_metro_trem": "OPERANDO", "nm_linha_metro_trem": "RUBI", "nm_empresa_metro_trem": "CPTM", "cd_tipo_transporte": 2}}, {"type": "Feature", "id": "estacao_trem.3087", "geometry": {"type": "Point", "coordinates": [333082.9791, 7396306.9895]}, "geometry_name": "ge_ponto", "properties": {"cd_identificador": 3087, "cd_identificador_empresa_metro_trem": 2, "nm_estacao_metro_trem": "LUZ", "cd_situacao_estacao_metro_trem": 1, "sg_fonte_original": "CPTM", "cd_identificador_linha": 10, "tx_situacao_metro_trem": "OPERANDO", "nm_linha_metro_trem": "TURQUESA", "nm_empresa_metro_trem": "CPTM", "cd_tipo_transporte": 2}}, {"type": "Feature", "id": "estacao_trem.3088", "geometry": {"type": "Point", "coordinates": [333082.9791, 7396306.9895]}, "geometry_name": "ge_ponto", "properties": {"cd_identificador": 3088, "cd_identificador_empresa_metro_trem": 2, "nm_estacao_metro_trem": "LUZ", "cd_situacao_estacao_metro_trem": 1, "sg_fonte_original": "CPTM", "cd_identificador_linha": 11, "tx_situacao_metro_trem": "OPERANDO", "nm_linha_metro_trem": "CORAL", "nm_empresa_metro_trem": "CPTM", "cd_tipo_transporte": 2}}, {"type": "Feature", "id": "estacao_trem.3089", "geometry": {"type": "Point", "coordinates": [335844.2064, 7393779.2328]}, "geometry_name": "ge_ponto", "properties": {"cd_identificador": 3089, "cd_identificador_empresa_metro_trem": 2, "nm_estacao_metro_trem": "MOOCA", "cd_situacao_estacao_metro_trem": 1, "sg_fonte_original": "CPTM", "cd_identificador_linha": 10, "tx_situacao_metro_trem": "OPERANDO", "nm_linha_metro_trem": "TURQUESA", "nm_empresa_metro_trem": "CPTM", "cd_tipo_transporte": 2}}, {"type": "Feature", "id": "estacao_trem.3090", "geometry": {"type": "Point", "coordinates": [320145.6192, 7396567.6498]}, "geometry_name": "ge_ponto", "properties": {"cd_identificador": 3090, "cd_identificador_empresa_metro_trem": 6, "nm_estacao_metro_trem": "PRESIDENTE ALTINO", "cd_situacao_estacao_metro_trem": 1, "sg_fonte_original": "CPTM", "cd_identificador_linha": 8, "tx_situacao_metro_trem": "OPERANDO", "nm_linha_metro_trem": "DIAMANTE", "nm_empresa_metro_trem": "VIAMOBILIDADE", "cd_tipo_transporte": 2}}, {"type": "Feature", "id": "estacao_trem.3091", "geometry": {"type": "Point", "coordinates": [320145.6192, 7396567.6498]}, "geometry_name": "ge_ponto", "properties": {"cd_identificador": 3091, "cd_identificador_empresa_metro_trem": 6, "nm_estacao_metro_trem": "PRESIDENTE ALTINO", "cd_situacao_estacao_metro_trem": 1, "sg_fonte_original": "CPTM", "cd_identificador_linha": 9, "tx_situacao_metro_trem": "OPERANDO", "nm_linha_metro_trem": "ESMERALDA", "nm_empresa_metro_trem": "VIAMOBILIDADE", "cd_tipo_transporte": 2}}, {"type": "Feature", "id": "estacao_trem.3092", "geometry": {"type": "Point", "coordinates": [334956.4306, 7395324.7465]}, "geometry_name": "ge_ponto", "properties": {"cd_identificador": 3092, "cd_identificador_empresa_metro_trem": 2, "nm_estacao_metro_trem": "BRÁS", "cd_situacao_estacao_metro_trem": 1, "sg_fonte_original": "CPTM", "cd_identificador_linha": 10, "tx_situacao_metro_trem": "OPERANDO", "nm_linha_metro_trem": "TURQUESA", "nm_empresa_metro_trem": "CPTM", "cd_tipo_transporte": 2}}, {"type": "Feature", "id": "estacao_trem.3093", "geometry": {"type": "Point", "coordinates": [334956.4306, 7395324.7465]}, "geometry_name": "ge_ponto", "properties": {"cd_identificador": 3093, "cd_identificador_empresa_metro_trem": 2, "nm_estacao_metro_trem": "BRÁS", "cd_situacao_estacao_metro_trem": 1, "sg_fonte_original": "CPTM", "cd_identificador_linha": 11, "tx_situacao_metro_trem": "OPERANDO", "nm_linha_metro_trem": "CORAL", "nm_empresa_metro_trem": "CPTM", "cd_tipo_transporte": 2}}, {"type": "Feature", "id": "estacao_trem.3094", "geometry": {"type": "Point", "coordinates": [334956.4306, 7395324.7465]}, "geometry_name": "ge_ponto", "properties": {"cd_identificador": 3094, "cd_identificador_empresa_metro_trem": 2, "nm_estacao_metro_trem": "BRÁS", "cd_situacao_estacao_metro_trem": 1, "sg_fonte_original": "CPTM", "cd_identificador_linha": 12, "tx_situacao_metro_trem": "OPERANDO", "nm_linha_metro_trem": "SAFIRA", "nm_empresa_metro_trem": "CPTM", "cd_tipo_transporte": 2}}, {"type": "Feature", "id": "estacao_trem.3095", "geometry": {"type": "Point", "coordinates": [339078.4371, 7395790.7982]}, "geometry_name": "ge_ponto", "properties": {"cd_identificador": 3095, "cd_identificador_empresa_metro_trem": 2, "nm_estacao_metro_trem": "TATUAPÉ", "cd_situacao_estacao_metro_trem": 1, "sg_fonte_original": "CPTM", "cd_identificador_linha": 11, "tx_situacao_metro_trem": "OPERANDO", "nm_linha_metro_trem": "CORAL", "nm_empresa_metro_trem": "CPTM", "cd_tipo_transporte": 2}}, {"type": "Feature", "id": "estacao_trem.3096", "geometry": {"type": "Point", "coordinates": [339078.4371, 7395790.7982]}, "geometry_name": "ge_ponto", "properties": {"cd_identificador": 3096, "cd_identificador_empresa_metro_trem": 2, "nm_estacao_metro_trem": "TATUAPÉ", "cd_situacao_estacao_metro_trem": 1, "sg_fonte_original": "CPTM", "cd_identificador_linha": 12, "tx_situacao_metro_trem": "OPERANDO", "nm_linha_metro_trem": "SAFIRA", "nm_empresa_metro_trem": "CPTM", "cd_tipo_transporte": 2}}, {"type": "Feature", "id": "estacao_trem.3097", "geometry": {"type": "Point", "coordinates": [297477.1009, 7396351.0536]}, "geometry_name": "ge_ponto", "properties": {"cd_identificador": 3097, "cd_identificador_empresa_metro_trem": 6, "nm_estacao_metro_trem": "AMADOR BUENO", "cd_situacao_estacao_metro_trem": 1, "sg_fonte_original": "CPTM", "cd_identificador_linha": 8, "tx_situacao_metro_trem": "OPERANDO", "nm_linha_metro_trem": "DIAMANTE", "nm_empresa_metro_trem": "VIAMOBILIDADE", "cd_tipo_transporte": 2}}, {"type": "Feature", "id": "estacao_trem.3098", "geometry": {"type": "Point", "coordinates": [355501.9023, 7395730.5793]}, "geometry_name": "ge_ponto", "properties": {"cd_identificador": 3098, "cd_identificador_empresa_metro_trem": 2, "nm_estacao_metro_trem": "GUAIANASES", "cd_situacao_estacao_metro_trem": 1, "sg_fonte_original": "CPTM", "cd_identificador_linha": 11, "tx_situacao_metro_trem": "OPERANDO", "nm_linha_metro_trem": "CORAL", "nm_empresa_metro_trem": "CPTM", "cd_tipo_transporte": 2}}, {"type": "Feature", "id": "estacao_trem.3099", "geometry": {"type": "Point", "coordinates": [346748.3484, 7401936.173]}, "geometry_name": "ge_ponto", "properties": {"cd_identificador": 3099, "cd_identificador_empresa_metro_trem": 2, "nm_estacao_metro_trem": "USP LESTE", "cd_situacao_estacao_metro_trem": 1, "sg_fonte_original": "CPTM", "cd_identificador_linha": 12, "tx_situacao_metro_trem": "OPERANDO", "nm_linha_metro_trem": "SAFIRA", "nm_empresa_metro_trem": "CPTM", "cd_tipo_transporte": 2}}, {"type": "Feature", "id": "estacao_trem.3100", "geometry": {"type": "Point", "coordinates": [329762.7158, 7397307.2791]}, "geometry_name": "ge_ponto", "properties": {"cd_identificador": 3100, "cd_identificador_empresa_metro_trem": 2, "nm_estacao_metro_trem": "PALMEIRAS - BARRA FUNDA", "cd_situacao_estacao_metro_trem": 1, "sg_fonte_original": "CPTM", "cd_identificador_linha": 7, "tx_situacao_metro_trem": "OPERANDO", "nm_linha_metro_trem": "RUBI", "nm_empresa_metro_trem": "CPTM", "cd_tipo_transporte": 2}}, {"type": "Feature", "id": "estacao_trem.3101", "geometry": {"type": "Point", "coordinates": [329762.7158, 7397307.2791]}, "geometry_name": "ge_ponto", "properties": {"cd_identificador": 3101, "cd_identificador_empresa_metro_trem": 6, "nm_estacao_metro_trem": "PALMEIRAS - BARRA FUNDA", "cd_situacao_estacao_metro_trem": 1, "sg_fonte_original": "CPTM", "cd_identificador_linha": 8, "tx_situacao_metro_trem": "OPERANDO", "nm_linha_metro_trem": "DIAMANTE", "nm_empresa_metro_trem": "VIAMOBILIDADE", "cd_tipo_transporte": 2}}, {"type": "Feature", "id": "estacao_trem.3102", "geometry": {"type": "Point", "coordinates": [329762.7158, 7397307.2791]}, "geometry_name": "ge_ponto", "properties": {"cd_identificador": 3102, "cd_identificador_empresa_metro_trem": 2, "nm_estacao_metro_trem": "PALMEIRAS - BARRA FUNDA", "cd_situacao_estacao_metro_trem": 1, "sg_fonte_original": "CPTM", "cd_identificador_linha": 10, "tx_situacao_metro_trem": "OPERANDO", "nm_linha_metro_trem": "TURQUESA", "nm_empresa_metro_trem": "CPTM", "cd_tipo_transporte": 2}}, {"type": "Feature", "id": "estacao_trem.3103", "geometry": {"type": "Point", "coordinates": [329762.7158, 7397307.2791]}, "geometry_name": "ge_ponto", "properties": {"cd_identificador": 3103, "cd_identificador_empresa_metro_trem": 2, "nm_estacao_metro_trem": "PALMEIRAS - BARRA FUNDA", "cd_situacao_estacao_metro_trem": 1, "sg_fonte_original": "CPTM", "cd_identificador_linha": 11, "tx_situacao_metro_trem": "OPERANDO", "nm_linha_metro_trem": "CORAL", "nm_empresa_metro_trem": "CPTM", "cd_tipo_transporte": 2}}, {"type": "Feature", "id": "estacao_trem.3104", "geometry": {"type": "Point", "coordinates": [348617.1855, 7401992.9522]}, "geometry_name": "ge_ponto", "properties": {"cd_identificador": 3104, "cd_identificador_empresa_metro_trem": 2, "nm_estacao_metro_trem": "COMENDADOR ERMELINO", "cd_situacao_estacao_metro_trem": 1, "sg_fonte_original": "CPTM", "cd_identificador_linha": 12, "tx_situacao_metro_trem": "OPERANDO", "nm_linha_metro_trem": "SAFIRA", "nm_empresa_metro_trem": "CPTM", "cd_tipo_transporte": 2}}, {"type": "Feature", "id": "estacao_trem.3105", "geometry": {"type": "Point", "coordinates": [344782.5724, 7400517.7421]}, "geometry_name": "ge_ponto", "properties": {"cd_identificador": 3105, "cd_identificador_empresa_metro_trem": 2, "nm_estacao_metro_trem": "ENGENHEIRO GOULART", "cd_situacao_estacao_metro_trem": 1, "sg_fonte_original": "CPTM", "cd_identificador_linha": 12, "tx_situacao_metro_trem": "OPERANDO", "nm_linha_metro_trem": "SAFIRA", "nm_empresa_metro_trem": "CPTM", "cd_tipo_transporte": 2}}, {"type": "Feature", "id": "estacao_trem.3106", "geometry": {"type": "Point", "coordinates": [344782.5724, 7400517.7421]}, "geometry_name": "ge_ponto", "properties": {"cd_identificador": 3106, "cd_identificador_empresa_metro_trem": 2, "nm_estacao_metro_trem": "ENGENHEIRO GOULART", "cd_situacao_estacao_metro_trem": 1, "sg_fonte_original": "CPTM", "cd_identificador_linha": 13, "tx_situacao_metro_trem": "OPERANDO", "nm_linha_metro_trem": "JADE", "nm_empresa_metro_trem": "CPTM", "cd_tipo_transporte": 2}}, {"type": "Feature", "id": "estacao_trem.3107", "geometry": {"type": "Point", "coordinates": [325801.3085, 7371929.5877]}, "geometry_name": "ge_ponto", "properties": {"cd_identificador": 3107, "cd_identificador_empresa_metro_trem": 6, "nm_estacao_metro_trem": "MENDES / BRUNO COVAS", "cd_situacao_estacao_metro_trem": 1, "sg_fonte_original": "CPTM", "cd_identificador_linha": 9, "tx_situacao_metro_trem": "OPERANDO", "nm_linha_metro_trem": "ESMERALDA", "nm_empresa_metro_trem": "VIAMOBILIDADE", "cd_tipo_transporte": 2}}, {"type": "Feature", "id": "estacao_trem.3108", "geometry": {"type": "Point", "coordinates": [325555.0607, 7370186.5061]}, "geometry_name": "ge_ponto", "properties": {"cd_identificador": 3108, "cd_identificador_empresa_metro_trem": 6, "nm_estacao_metro_trem": "VARGINHA", "cd_situacao_estacao_metro_trem": 1, "sg_fonte_original": "CPTM", "cd_identificador_linha": 9, "tx_situacao_metro_trem": "OPERANDO", "nm_linha_metro_trem": "ESMERALDA", "nm_empresa_metro_trem": "VIAMOBILIDADE", "cd_tipo_transporte": 2}}, {"type": "Feature", "id": "estacao_trem.3109", "geometry": {"type": "Point", "coordinates": [298605.07810256, 7396404.29213321]}, "geometry_name": "ge_ponto", "properties": {"cd_identificador": 3109, "cd_identificador_empresa_metro_trem": 6, "nm_estacao_metro_trem": "AMBUITÁ", "cd_situacao_estacao_metro_trem": 1, "sg_fonte_original": "CPTM", "cd_identificador_linha": 8, "tx_situacao_metro_trem": "OPERANDO", "nm_linha_metro_trem": "DIAMANTE", "nm_empresa_metro_trem": "VIAMOBILIDADE", "cd_tipo_transporte": 2}}], "totalFeatures": 109, "numberMatched": 109, "numberReturned": 109, "timeStamp": "2026-09-27T12:54:05.436Z", "crs": {"type": "name", "properties": {"name": "urn:ogc:def:crs:EPSG::31983"}}}